0 THORAD DELTA 1 DEB
1 08158U 74089Y   13282.96778854  .00000025  00000-0  40839-3 0  1907
2 08158 101.9316 298.1705 0070639 309.1220 114.5524 12.61247058789786
0 THORAD DELTA 1 DEB
1 08158U 74089Y   13287.50964222  .00000026  00000-0  41242-3 0  1920
2 08158 101.9309 302.8018 0070659 300.2281 216.8768 12.61248042790354
0 THORAD DELTA 1 DEB
1 08158U 74089Y   13289.94765685  .00000009  00000-0  31562-3 0  1938
2 08158 101.9307 305.2875 0070664 295.4795 126.6825 12.61248508790664
0 THORAD DELTA 1 DEB
1 08158U 74089Y   13292.50689685  .00000008  00000-0  31248-3 0  1940
2 08158 101.9309 307.8964 0070670 290.4877 226.9241 12.61248953790981
0 THORAD DELTA 1 DEB
1 08158U 74089Y   13294.56826826  .00000021  00000-0  38181-3 0  1957
2 08158 101.9310 309.9979 0070686 286.4661 226.5949 12.61249190791240
